{
"type": "FeatureCollection",
"name": "ROTAS_NDB",
"crs": { "type": "name", "properties": { "name": "urn:ogc:def:crs:OGC:1.3:CRS84" } },
"features": [
{ "type": "Feature", "properties": { "id": null }, "geometry": { "type": "MultiLineString", "coordinates": [ [ [ -39.917885468638502, -18.175107609686023 ], [ -39.916499147728771, -18.175453362297802 ], [ -39.91515614934746, -18.175815578584949 ], [ -39.914246376250446, -18.176235419249796 ], [ -39.913951783057115, -18.176408294524087 ], [ -39.913016016443059, -18.176342437296938 ], [ -39.912496146101908, -18.176111936806166 ], [ -39.912236210931333, -18.176037847298041 ], [ -39.912045591806248, -18.176037847298041 ], [ -39.911872301692519, -18.176194258444959 ], [ -39.911796487267779, -18.176325972986259 ], [ -39.911623197154057, -18.176918687191851 ], [ -39.911527887591518, -18.177297364658124 ], [ -39.911337268466418, -18.177470238880382 ], [ -39.91105133977878, -18.177552559878407 ], [ -39.910011599096492, -18.177700737576981 ], [ -39.907212963759967, -18.17863096136578 ], [ -39.905932783044875, -18.178976706996561 ], [ -39.905473564243529, -18.179091955387911 ], [ -39.905005680936497, -18.179050795256884 ], [ -39.903506721452842, -18.178795602227787 ], [ -39.902555791953809, -18.179264827832199 ], [ -39.890694083669914, -18.186591169191871 ], [ -39.890347503442477, -18.187052142178267 ], [ -39.893154803284681, -18.190048436889036 ], [ -39.892912197125483, -18.190608178545197 ], [ -39.888198706032377, -18.193472710656078 ], [ -39.881856287870349, -18.18925821031549 ], [ -39.878633091755212, -18.188039937331858 ], [ -39.872221357547673, -18.189324062666731 ], [ -39.869206109569014, -18.190147214958923 ], [ -39.866121545544836, -18.190476474787754 ], [ -39.864042064180246, -18.187908231634658 ], [ -39.861200106315287, -18.181388675311595 ], [ -39.858496780541287, -18.174407870161527 ], [ -39.856555931267671, -18.172234543632822 ], [ -39.854823030130504, -18.170983222143864 ], [ -39.853263419107066, -18.170785644246685 ], [ -39.852812864811384, -18.171082011008597 ], [ -39.850560093333058, -18.170094119845537 ], [ -39.848272663832006, -18.169073293104017 ], [ -39.84671305280856, -18.170028260235885 ], [ -39.842866012284048, -18.166866969755347 ], [ -39.839400210009707, -18.172366261162473 ], [ -39.838117863168186, -18.172366261162473 ], [ -39.833716294279789, -18.173716360110543 ], [ -39.831706128960668, -18.174803017531943 ], [ -39.823873415820657, -18.178227590597306 ] ] ] } },
{ "type": "Feature", "properties": { "id": null }, "geometry": { "type": "MultiLineString", "coordinates": [ [ [ -39.848376637900245, -18.169007433109268 ], [ -39.84470288748944, -18.166504734899362 ], [ -39.842900670306783, -18.165121649446089 ], [ -39.839816106282626, -18.163639760018484 ], [ -39.837008806440409, -18.161169916362802 ], [ -39.836870174349428, -18.159523334522518 ], [ -39.836835516326694, -18.158107261726045 ], [ -39.834409454734647, -18.155373879448508 ], [ -39.820719535751017, -18.167525576659148 ], [ -39.82415068000261, -18.172234543632822 ], [ -39.824843840457483, -18.173387068647113 ] ] ] } }
]
}
